[{"OBJECT_NAME":"STARLINK-33988","OBJECT_ID":"2025-098N","EPOCH":"2026-03-09T23:26:18.344544","MEAN_MOTION":14.98336028,"ECCENTRICITY":0.00028424,"INCLINATION":69.9995,"RA_OF_ASC_NODE":273.8036,"ARG_OF_PERICENTER":297.4252,"MEAN_ANOMALY":62.6618,"EPHEMERIS_TYPE":0,"CLASSIFICATION_TYPE":"U","NORAD_CAT_ID":63938,"ELEMENT_SET_NO":999,"REV_AT_EPOCH":4659,"BSTAR":0.00025609736,"MEAN_MOTION_DOT":2.964e-5,"MEAN_MOTION_DDOT":0},{"OBJECT_NAME":"CZ-2C DEB","OBJECT_ID":"2014-066E","EPOCH":"2026-03-09T21:55:34.712544","MEAN_MOTION":14.96320405,"ECCENTRICITY":0.00459749,"INCLINATION":97.9301,"RA_OF_ASC_NODE":44.7594,"ARG_OF_PERICENTER":158.4857,"MEAN_ANOMALY":201.831,"EPHEMERIS_TYPE":0,"CLASSIFICATION_TYPE":"U","NORAD_CAT_ID":40290,"ELEMENT_SET_NO":999,"REV_AT_EPOCH":60512,"BSTAR":0.0018751551,"MEAN_MOTION_DOT":0.00021654,"MEAN_MOTION_DDOT":0}]
